start=new Date('2022-05-20T00:00:00.000Z').valueOf();
sats=[{"CLASSIFICATION_TYPE":"U","TLE_LINE1":"1 51115U 22005M   22139.91667824 -.00006986  00000-0 -42168-3 0  9997","ELEMENT_SET_NO":"999","SITE":"AFETR","MEAN_MOTION":"15.08799689","REV_AT_EPOCH":"130","DECAY_DATE":null,"RCS_SIZE":"LARGE","FILE":"3453812","MEAN_ELEMENT_THEORY":"SGP4","TLE_LINE2":"2 51115  53.2125  48.0578 0001832  57.0427  46.3201 15.08799689  1306","ECCENTRICITY":"0.00018320","OBJECT_ID":"2022-005M","SEMIMAJOR_AXIS":"6918.004","GP_ID":"203989145","EPHEMERIS_TYPE":"0","PERIOD":"95.440","INCLINATION":"53.2125","TIME_SYSTEM":"UTC","EPOCH":"2022-05-19T22:00:00.999936","BSTAR":"-0.00042168000000","ARG_OF_PERICENTER":"57.0427","OBJECT_NAME":"STARLINK-3397","OBJECT_TYPE":"PAYLOAD","CENTER_NAME":"EARTH","COUNTRY_CODE":"US","APOAPSIS":"541.136","MEAN_MOTION_DOT":"-0.00006986","NORAD_CAT_ID":"51115","MEAN_MOTION_DDOT":"0.0000000000000","LAUNCH_DATE":"2022-01-19","PERIAPSIS":"538.601","MEAN_ANOMALY":"46.3201","RA_OF_ASC_NODE":"48.0578","REF_FRAME":"TEME"},{"ECCENTRICITY":"0.00018690","SEMIMAJOR_AXIS":"6917.891","OBJECT_ID":"2022-005N","TLE_LINE2":"2 51116  53.2122  48.0572 0001869  48.7294 334.5590 15.08836374  1303","PERIOD":"95.438","INCLINATION":"53.2122","EPHEMERIS_TYPE":"0","GP_ID":"203989395","CLASSIFICATION_TYPE":"U","TLE_LINE1":"1 51116U 22005N   22139.91667824 -.00029085  00000-0 -18169-2 0  9996","DECAY_DATE":null,"FILE":"3453812","MEAN_ELEMENT_THEORY":"SGP4","RCS_SIZE":"LARGE","ELEMENT_SET_NO":"999","SITE":"AFETR","MEAN_MOTION":"15.08836374","REV_AT_EPOCH":"130","NORAD_CAT_ID":"51116","MEAN_MOTION_DDOT":"0.0000000000000","PERIAPSIS":"538.464","LAUNCH_DATE":"2022-01-19","MEAN_MOTION_DOT":"-0.00029085","APOAPSIS":"541.049","REF_FRAME":"TEME","RA_OF_ASC_NODE":"48.0572","MEAN_ANOMALY":"334.5590","EPOCH":"2022-05-19T22:00:00.999936","ARG_OF_PERICENTER":"48.7294","OBJECT_NAME":"STARLINK-3243","BSTAR":"-0.00181690000000","TIME_SYSTEM":"UTC","COUNTRY_CODE":"US","OBJECT_TYPE":"PAYLOAD","CENTER_NAME":"EARTH"},{"NORAD_CAT_ID":"51117","MEAN_MOTION_DDOT":"0.0000000000000","PERIAPSIS":"538.775","LAUNCH_DATE":"2022-01-19","MEAN_MOTION_DOT":"0.00006620","APOAPSIS":"541.087","REF_FRAME":"TEME","RA_OF_ASC_NODE":"48.0551","MEAN_ANOMALY":"127.9802","EPOCH":"2022-05-19T22:00:00.999936","OBJECT_NAME":"STARLINK-3391","ARG_OF_PERICENTER":"55.4167","BSTAR":"0.00043434000000","TIME_SYSTEM":"UTC","COUNTRY_CODE":"US","OBJECT_TYPE":"PAYLOAD","CENTER_NAME":"EARTH","ECCENTRICITY":"0.00016710","OBJECT_ID":"2022-005P","SEMIMAJOR_AXIS":"6918.066","TLE_LINE2":"2 51117  53.2141  48.0551 0001671  55.4167 127.9802 15.08779289  1308","PERIOD":"95.441","INCLINATION":"53.2141","EPHEMERIS_TYPE":"0","GP_ID":"203989647","CLASSIFICATION_TYPE":"U","TLE_LINE1":"1 51117U 22005P   22139.91667824  .00006620  00000-0  43434-3 0  9999","DECAY_DATE":null,"MEAN_ELEMENT_THEORY":"SGP4","FILE":"3453812","RCS_SIZE":"LARGE","SITE":"AFETR","ELEMENT_SET_NO":"999","MEAN_MOTION":"15.08779289","REV_AT_EPOCH":"130"},{"MEAN_ELEMENT_THEORY":"SGP4","FILE":"3453812","RCS_SIZE":"LARGE","DECAY_DATE":null,"REV_AT_EPOCH":"130","MEAN_MOTION":"15.08836618","SITE":"AFETR","ELEMENT_SET_NO":"999","TLE_LINE1":"1 51118U 22005Q   22139.91667824 -.00018990  00000-0 -11783-2 0  9996","CLASSIFICATION_TYPE":"U","INCLINATION":"53.2127","PERIOD":"95.438","GP_ID":"203990397","EPHEMERIS_TYPE":"0","OBJECT_ID":"2022-005Q","SEMIMAJOR_AXIS":"6917.891","ECCENTRICITY":"0.00015430","TLE_LINE2":"2 51118  53.2127  48.0559 0001543  53.5951  29.7556 15.08836618  1304","COUNTRY_CODE":"US","OBJECT_TYPE":"PAYLOAD","CENTER_NAME":"EARTH","BSTAR":"-0.00117830000000","OBJECT_NAME":"STARLINK-3394","ARG_OF_PERICENTER":"53.5951","EPOCH":"2022-05-19T22:00:00.999936","TIME_SYSTEM":"UTC","MEAN_ANOMALY":"29.7556","RA_OF_ASC_NODE":"48.0559","REF_FRAME":"TEME","PERIAPSIS":"538.688","LAUNCH_DATE":"2022-01-19","MEAN_MOTION_DDOT":"0.0000000000000","NORAD_CAT_ID":"51118","APOAPSIS":"540.823","MEAN_MOTION_DOT":"-0.00018990"},{"TLE_LINE1":"1 51119U 22005R   22139.91667824 -.00045394  00000-0 -28493-2 0  9991","CLASSIFICATION_TYPE":"U","REV_AT_EPOCH":"130","MEAN_MOTION":"15.08876255","SITE":"AFETR","ELEMENT_SET_NO":"999","FILE":"3453812","MEAN_ELEMENT_THEORY":"SGP4","RCS_SIZE":"LARGE","DECAY_DATE":null,"TLE_LINE2":"2 51119  53.2174  48.0557 0001632  49.3770 153.8786 15.08876255  1301","SEMIMAJOR_AXIS":"6917.770","OBJECT_ID":"2022-005R","ECCENTRICITY":"0.00016320","GP_ID":"203988646","EPHEMERIS_TYPE":"0","PERIOD":"95.435","INCLINATION":"53.2174","TIME_SYSTEM":"UTC","BSTAR":"-0.00284930000000","ARG_OF_PERICENTER":"49.3770","OBJECT_NAME":"STARLINK-3390","EPOCH":"2022-05-19T22:00:00.999936","CENTER_NAME":"EARTH","OBJECT_TYPE":"PAYLOAD","COUNTRY_CODE":"US","APOAPSIS":"540.764","MEAN_MOTION_DOT":"-0.00045394","PERIAPSIS":"538.506","LAUNCH_DATE":"2022-01-19","NORAD_CAT_ID":"51119","MEAN_MOTION_DDOT":"0.0000000000000","MEAN_ANOMALY":"153.8786","RA_OF_ASC_NODE":"48.0557","REF_FRAME":"TEME"},{"MEAN_MOTION_DOT":"-0.00030741","APOAPSIS":"541.038","LAUNCH_DATE":"2022-01-19","PERIAPSIS":"538.348","NORAD_CAT_ID":"51120","MEAN_MOTION_DDOT":"0.0000000000000","REF_FRAME":"TEME","RA_OF_ASC_NODE":"48.0563","MEAN_ANOMALY":"195.7197","TIME_SYSTEM":"UTC","ARG_OF_PERICENTER":"47.5548","OBJECT_NAME":"STARLINK-3398","BSTAR":"-0.00192070000000","EPOCH":"2022-05-19T22:00:00.999936","OBJECT_TYPE":"PAYLOAD","CENTER_NAME":"EARTH","COUNTRY_CODE":"US","TLE_LINE2":"2 51120  53.2199  48.0563 0001944  47.5548 195.7197 15.08857095  1308","OBJECT_ID":"2022-005S","SEMIMAJOR_AXIS":"6917.828","ECCENTRICITY":"0.00019440","EPHEMERIS_TYPE":"0","GP_ID":"203988896","PERIOD":"95.436","INCLINATION":"53.2199","TLE_LINE1":"1 51120U 22005S   22139.91667824 -.00030741  00000-0 -19207-2 0  9996","CLASSIFICATION_TYPE":"U","REV_AT_EPOCH":"130","ELEMENT_SET_NO":"999","SITE":"AFETR","MEAN_MOTION":"15.08857095","MEAN_ELEMENT_THEORY":"SGP4","FILE":"3453812","RCS_SIZE":"LARGE","DECAY_DATE":null},{"APOAPSIS":"540.922","MEAN_MOTION_DOT":"-0.00003888","PERIAPSIS":"538.545","LAUNCH_DATE":"2022-01-19","MEAN_MOTION_DDOT":"0.0000000000000","NORAD_CAT_ID":"51121","RA_OF_ASC_NODE":"48.0564","MEAN_ANOMALY":"110.8966","REF_FRAME":"TEME","TIME_SYSTEM":"UTC","BSTAR":"-0.00022627000000","OBJECT_NAME":"STARLINK-3399","ARG_OF_PERICENTER":"52.4172","EPOCH":"2022-05-19T22:00:00.999936","CENTER_NAME":"EARTH","OBJECT_TYPE":"PAYLOAD","COUNTRY_CODE":"US","TLE_LINE2":"2 51121  53.2134  48.0564 0001718  52.4172 110.8966 15.08843876  1300","SEMIMAJOR_AXIS":"6917.869","OBJECT_ID":"2022-005T","ECCENTRICITY":"0.00017180","GP_ID":"203990147","EPHEMERIS_TYPE":"0","INCLINATION":"53.2134","PERIOD":"95.437","TLE_LINE1":"1 51121U 22005T   22139.91667824 -.00003888  00000-0 -22627-3 0  9990","CLASSIFICATION_TYPE":"U","REV_AT_EPOCH":"130","ELEMENT_SET_NO":"999","SITE":"AFETR","MEAN_MOTION":"15.08843876","MEAN_ELEMENT_THEORY":"SGP4","FILE":"3453812","RCS_SIZE":"LARGE","DECAY_DATE":null},{"CENTER_NAME":"EARTH","OBJECT_TYPE":"PAYLOAD","COUNTRY_CODE":"US","TIME_SYSTEM":"UTC","EPOCH":"2022-05-19T22:00:00.999936","BSTAR":"-0.00591180000000","OBJECT_NAME":"STARLINK-3373","ARG_OF_PERICENTER":"45.0189","MEAN_ANOMALY":"178.4072","RA_OF_ASC_NODE":"48.0552","REF_FRAME":"TEME","APOAPSIS":"540.769","MEAN_MOTION_DOT":"-0.00093252","MEAN_MOTION_DDOT":"0.0000000000000","NORAD_CAT_ID":"51122","LAUNCH_DATE":"2022-01-19","PERIAPSIS":"538.498","ELEMENT_SET_NO":"999","SITE":"AFETR","MEAN_MOTION":"15.08876630","REV_AT_EPOCH":"130","DECAY_DATE":null,"RCS_SIZE":"LARGE","FILE":"3453812","MEAN_ELEMENT_THEORY":"SGP4","CLASSIFICATION_TYPE":"U","TLE_LINE1":"1 51122U 22005U   22139.91667824 -.00093252  00000-0 -59118-2 0  9999","GP_ID":"203989898","EPHEMERIS_TYPE":"0","INCLINATION":"53.2194","PERIOD":"95.435","TLE_LINE2":"2 51122  53.2194  48.0552 0001641  45.0189 178.4072 15.08876630  1307","ECCENTRICITY":"0.00016410","SEMIMAJOR_AXIS":"6917.768","OBJECT_ID":"2022-005U"},{"CLASSIFICATION_TYPE":"U","TLE_LINE1":"1 51123U 22005V   22139.91667824 -.00002540  00000-0 -14156-3 0  9994","DECAY_DATE":null,"MEAN_ELEMENT_THEORY":"SGP4","FILE":"3453812","RCS_SIZE":"LARGE","MEAN_MOTION":"15.08839596","SITE":"AFETR","ELEMENT_SET_NO":"999","REV_AT_EPOCH":"130","ECCENTRICITY":"0.00016510","SEMIMAJOR_AXIS":"6917.882","OBJECT_ID":"2022-005V","TLE_LINE2":"2 51123  53.2192  48.0553 0001651  43.3045 220.0391 15.08839596  1308","PERIOD":"95.438","INCLINATION":"53.2192","EPHEMERIS_TYPE":"0","GP_ID":"203989146","EPOCH":"2022-05-19T22:00:00.999936","OBJECT_NAME":"STARLINK-3392","ARG_OF_PERICENTER":"43.3045","BSTAR":"-0.00014156000000","TIME_SYSTEM":"UTC","COUNTRY_CODE":"US","CENTER_NAME":"EARTH","OBJECT_TYPE":"PAYLOAD","MEAN_MOTION_DDOT":"0.0000000000000","NORAD_CAT_ID":"51123","LAUNCH_DATE":"2022-01-19","PERIAPSIS":"538.604","MEAN_MOTION_DOT":"-0.00002540","APOAPSIS":"540.889","REF_FRAME":"TEME","RA_OF_ASC_NODE":"48.0553","MEAN_ANOMALY":"220.0391"},{"MEAN_MOTION_DDOT":"0.0000000000000","NORAD_CAT_ID":"51124","PERIAPSIS":"538.752","LAUNCH_DATE":"2022-01-19","APOAPSIS":"541.074","MEAN_MOTION_DOT":"0.00017192","MEAN_ANOMALY":"335.8143","RA_OF_ASC_NODE":"58.0442","REF_FRAME":"TEME","EPOCH":"2022-05-19T22:00:00.999936","BSTAR":"0.00109730000000","ARG_OF_PERICENTER":"52.5235","OBJECT_NAME":"STARLINK-3389","TIME_SYSTEM":"UTC","COUNTRY_CODE":"US","CENTER_NAME":"EARTH","OBJECT_TYPE":"PAYLOAD","ECCENTRICITY":"0.00016780","SEMIMAJOR_AXIS":"6918.048","OBJECT_ID":"2022-005W","TLE_LINE2":"2 51124  53.2181  58.0442 0001678  52.5235 335.8143 15.08785066  1309","INCLINATION":"53.2181","PERIOD":"95.441","GP_ID":"203989396","EPHEMERIS_TYPE":"0","CLASSIFICATION_TYPE":"U","TLE_LINE1":"1 51124U 22005W   22139.91667824  .00017192  00000-0  10973-2 0  9994","DECAY_DATE":null,"MEAN_ELEMENT_THEORY":"SGP4","FILE":"3453812","RCS_SIZE":"LARGE","SITE":"AFETR","ELEMENT_SET_NO":"999","MEAN_MOTION":"15.08785066","REV_AT_EPOCH":"130"}];
